{"type": "FeatureCollection", "features": [ {"type": "Feature", "properties": {"norad_id": 42969, "name": "SENTINEL-5P", "group": "resource", "lat": -57.09529023540028, "lon": 87.4597295677196, "alt_km": 834.6483132277908, "timestamp": "2025-12-08T15:42:49.435871+00:00", "meta": {"OBJECT_NAME": "SENTINEL-5P", "OBJECT_ID": "2017-064A", "EPOCH": "2025-12-08T06:08:13.913376", "MEAN_MOTION": 14.1951589, "ECCENTRICITY": 9.623e-05, "INCLINATION": 98.7779, "RA_OF_ASC_NODE": 280.8798, "ARG_OF_PERICENTER": 86.8806, "MEAN_ANOMALY": 273.248, "EPHEMERIS_TYPE": 0, "CLASSIFICATION_TYPE": "U", "NORAD_CAT_ID": 42969, "ELEMENT_SET_NO": 999, "REV_AT_EPOCH": 42247, "BSTAR": 0.00011654444, "MEAN_MOTION_DOT": 2.01e-06, "MEAN_MOTION_DDOT": 0}, "tle": {"line1": "1 42969U 17064A   25342.25571659  .00000201  00000+0  11654-3 0  9996", "line2": "2 42969  98.7779 280.8798 0000962  86.8806 273.2480 14.19515890422472"}}, "geometry": {"type": "Point", "coordinates": [87.4597295677196, -57.09529023540028]}}, {"type": "Feature", "properties": {"norad_id": 42987, "name": "SKYSAT-C11", "group": "resource", "lat": -80.79589558167453, "lon": 173.53096218071295, "alt_km": 432.9492201848616, "timestamp": "2025-12-08T15:42:49.435881+00:00", "meta": {"OBJECT_NAME": "SKYSAT-C11", "OBJECT_ID": "2017-068A", "EPOCH": "2025-12-08T06:45:55.491264", "MEAN_MOTION": 15.47167736, "ECCENTRICITY": 9.304e-05, "INCLINATION": 97.4146, "RA_OF_ASC_NODE": 119.6646, "ARG_OF_PERICENTER": 106.015, "MEAN_ANOMALY": 254.1203, "EPHEMERIS_TYPE": 0, "CLASSIFICATION_TYPE": "U", "NORAD_CAT_ID": 42987, "ELEMENT_SET_NO": 999, "REV_AT_EPOCH": 45362, "BSTAR": 0.00053717635, "MEAN_MOTION_DOT": 0.0002724, "MEAN_MOTION_DDOT": 0}, "tle": {"line1": "1 42987U 17068A   25342.28189226  .00027240  00000+0  53718-3 0  9997", "line2": "2 42987  97.4146 119.6646 0000930 106.0150 254.1203 15.47167736453625"}}, "geometry": {"type": "Point", "coordinates": [173.53096218071295, -80.79589558167453]}}, {"type": "Feature", "properties": {"norad_id": 42988, "name": "SKYSAT-C10", "group": "resource", "lat": -40.680861162672066, "lon": -72.94223202134023, "alt_km": 477.6940499634766, "timestamp": "2025-12-08T15:42:49.435891+00:00", "meta": {"OBJECT_NAME": "SKYSAT-C10", "OBJECT_ID": "2017-068B", "EPOCH": "2025-12-08T06:54:50.547456", "MEAN_MOTION": 15.31917321, "ECCENTRICITY": 0.0005308, "INCLINATION": 97.4263, "RA_OF_ASC_NODE": 113.1276, "ARG_OF_PERICENTER": 116.1008, "MEAN_ANOMALY": 244.0781, "EPHEMERIS_TYPE": 0, "CLASSIFICATION_TYPE": "U", "NORAD_CAT_ID": 42988, "ELEMENT_SET_NO": 999, "REV_AT_EPOCH": 45311, "BSTAR": 0.00045358189, "MEAN_MOTION_DOT": 0.00013915, "MEAN_MOTION_DDOT": 0}, "tle": {"line1": "1 42988U 17068B   25342.28808504  .00013915  00000+0  45358-3 0  9990", "line2": "2 42988  97.4263 113.1276 0005308 116.1008 244.0781 15.31917321453111"}}, "geometry": {"type": "Point", "coordinates": [-72.94223202134023, -40.680861162672066]}}, {"type": "Feature", "properties": {"norad_id": 42989, "name": "SKYSAT-C9", "group": "resource", "lat": 9.796450049086134, "lon": 111.587806215903, "alt_km": 460.1073127195523, "timestamp": "2025-12-08T15:42:49.435901+00:00", "meta": {"OBJECT_NAME": "SKYSAT-C9", "OBJECT_ID": "2017-068C", "EPOCH": "2025-12-08T07:51:09.642816", "MEAN_MOTION": 15.35879402, "ECCENTRICITY": 0.0010689, "INCLINATION": 97.4193, "RA_OF_ASC_NODE": 112.5471, "ARG_OF_PERICENTER": 101.9087, "MEAN_ANOMALY": 258.3356, "EPHEMERIS_TYPE": 0, "CLASSIFICATION_TYPE": "U", "NORAD_CAT_ID": 42989, "ELEMENT_SET_NO": 999, "REV_AT_EPOCH": 45340, "BSTAR": 0.00050697262, "MEAN_MOTION_DOT": 0.00017672, "MEAN_MOTION_DDOT": 0}, "tle": {"line1": "1 42989U 17068C   25342.32719494  .00017672  00000+0  50697-3 0  9991", "line2": "2 42989  97.4193 112.5471 0010689 101.9087 258.3356 15.35879402453400"}}, "geometry": {"type": "Point", "coordinates": [111.587806215903, 9.796450049086134]}}, {"type": "Feature", "properties": {"norad_id": 42990, "name": "SKYSAT-C8", "group": "resource", "lat": 26.410235604813558, "lon": 108.92258282462723, "alt_km": 465.461348218716, "timestamp": "2025-12-08T15:42:49.435911+00:00", "meta": {"OBJECT_NAME": "SKYSAT-C8", "OBJECT_ID": "2017-068D", "EPOCH": "2025-12-08T07:45:49.936896", "MEAN_MOTION": 15.32770778, "ECCENTRICITY": 0.00018969, "INCLINATION": 97.4284, "RA_OF_ASC_NODE": 112.3052, "ARG_OF_PERICENTER": 5.8812, "MEAN_ANOMALY": 354.2452, "EPHEMERIS_TYPE": 0, "CLASSIFICATION_TYPE": "U", "NORAD_CAT_ID": 42990, "ELEMENT_SET_NO": 999, "REV_AT_EPOCH": 45303, "BSTAR": 0.00046704151, "MEAN_MOTION_DOT": 0.00014715, "MEAN_MOTION_DDOT": 0}, "tle": {"line1": "1 42990U 17068D   25342.32349464  .00014715  00000+0  46704-3 0  9998", "line2": "2 42990  97.4284 112.3052 0001896   5.8812 354.2452 15.32770778453039"}}, "geometry": {"type": "Point", "coordinates": [108.92258282462723, 26.410235604813558]}}, {"type": "Feature", "properties": {"norad_id": 42991, "name": "SKYSAT-C7", "group": "resource", "lat": -69.58949777027293, "lon": -86.84602602429275, "alt_km": 481.95419701246374, "timestamp": "2025-12-08T15:42:49.435921+00:00", "meta": {"OBJECT_NAME": "SKYSAT-C7", "OBJECT_ID": "2017-068E", "EPOCH": "2025-12-08T06:47:06.898272", "MEAN_MOTION": 15.32177473, "ECCENTRICITY": 0.00078384, "INCLINATION": 97.4292, "RA_OF_ASC_NODE": 113.3093, "ARG_OF_PERICENTER": 71.0846, "MEAN_ANOMALY": 289.1245, "EPHEMERIS_TYPE": 0, "CLASSIFICATION_TYPE": "U", "NORAD_CAT_ID": 42991, "ELEMENT_SET_NO": 999, "REV_AT_EPOCH": 45309, "BSTAR": 0.00044850631, "MEAN_MOTION_DOT": 0.00013878, "MEAN_MOTION_DDOT": 0}, "tle": {"line1": "1 42991U 17068E   25342.28271873  .00013878  00000+0  44851-3 0  9992", "line2": "2 42991  97.4292 113.3093 0007838  71.0846 289.1245 15.32177473453094"}}, "geometry": {"type": "Point", "coordinates": [-86.84602602429275, -69.58949777027293]}}, {"type": "Feature", "properties": {"norad_id": 42992, "name": "SKYSAT-C6", "group": "resource", "lat": 19.71456399822627, "lon": 111.4429425832305, "alt_km": 470.9058098211199, "timestamp": "2025-12-08T15:42:49.435932+00:00", "meta": {"OBJECT_NAME": "SKYSAT-C6", "OBJECT_ID": "2017-068F", "EPOCH": "2025-12-08T07:47:09.204576", "MEAN_MOTION": 15.31348502, "ECCENTRICITY": 0.00052118, "INCLINATION": 97.4325, "RA_OF_ASC_NODE": 113.7931, "ARG_OF_PERICENTER": 93.7557, "MEAN_ANOMALY": 266.428, "EPHEMERIS_TYPE": 0, "CLASSIFICATION_TYPE": "U", "NORAD_CAT_ID": 42992, "ELEMENT_SET_NO": 999, "REV_AT_EPOCH": 45308, "BSTAR": 0.00046859043, "MEAN_MOTION_DOT": 0.00014126, "MEAN_MOTION_DDOT": 0}, "tle": {"line1": "1 42992U 17068F   25342.32441209  .00014126  00000+0  46859-3 0  9997", "line2": "2 42992  97.4325 113.7931 0005211  93.7557 266.4280 15.31348502453088"}}, "geometry": {"type": "Point", "coordinates": [111.4429425832305, 19.71456399822627]}}, {"type": "Feature", "properties": {"norad_id": 43111, "name": "CARTOSAT-2F", "group": "resource", "lat": -54.090204474685756, "lon": 50.742972480908854, "alt_km": 515.7419179223016, "timestamp": "2025-12-08T15:42:49.435942+00:00", "meta": {"OBJECT_NAME": "CARTOSAT-2F", "OBJECT_ID": "2018-004A", "EPOCH": "2025-12-08T06:28:11.191872", "MEAN_MOTION": 15.19205555, "ECCENTRICITY": 6.955e-05, "INCLINATION": 97.4318, "RA_OF_ASC_NODE": 39.9792, "ARG_OF_PERICENTER": 142.5406, "MEAN_ANOMALY": 217.5877, "EPHEMERIS_TYPE": 0, "CLASSIFICATION_TYPE": "U", "NORAD_CAT_ID": 43111, "ELEMENT_SET_NO": 999, "REV_AT_EPOCH": 43834, "BSTAR": 0.00031457289, "MEAN_MOTION_DOT": 6.555e-05, "MEAN_MOTION_DDOT": 0}, "tle": {"line1": "1 43111U 18004A   25342.26957398  .00006555  00000+0  31457-3 0  9991", "line2": "2 43111  97.4318  39.9792 0000695 142.5406 217.5877 15.19205555438342"}}, "geometry": {"type": "Point", "coordinates": [50.742972480908854, -54.090204474685756]}}, {"type": "Feature", "properties": {"norad_id": 43259, "name": "GAOFEN-1 02", "group": "resource", "lat": -20.16346730272863, "lon": 43.433153520232864, "alt_km": 646.0813517546285, "timestamp": "2025-12-08T15:42:49.435952+00:00", "meta": {"OBJECT_NAME": "GAOFEN-1 02", "OBJECT_ID": "2018-031A", "EPOCH": "2025-12-08T06:02:48.884352", "MEAN_MOTION": 14.76466987, "ECCENTRICITY": 0.00014649, "INCLINATION": 98.0813, "RA_OF_ASC_NODE": 40.0395, "ARG_OF_PERICENTER": 229.9496, "MEAN_ANOMALY": 130.1585, "EPHEMERIS_TYPE": 0, "CLASSIFICATION_TYPE": "U", "NORAD_CAT_ID": 43259, "ELEMENT_SET_NO": 999, "REV_AT_EPOCH": 41452, "BSTAR": 0.00027767766, "MEAN_MOTION_DOT": 1.881e-05, "MEAN_MOTION_DDOT": 0}, "tle": {"line1": "1 43259U 18031A   25342.25195468  .00001881  00000+0  27768-3 0  9992", "line2": "2 43259  98.0813  40.0395 0001464 229.9496 130.1585 14.76466987414528"}}, "geometry": {"type": "Point", "coordinates": [43.433153520232864, -20.16346730272863]}}, {"type": "Feature", "properties": {"norad_id": 43260, "name": "GAOFEN-1 03", "group": "resource", "lat": 80.28695582928376, "lon": -83.58138044587002, "alt_km": 633.916966888246, "timestamp": "2025-12-08T15:42:49.435962+00:00", "meta": {"OBJECT_NAME": "GAOFEN-1 03", "OBJECT_ID": "2018-031B", "EPOCH": "2025-12-08T07:09:02.540448", "MEAN_MOTION": 14.76423522, "ECCENTRICITY": 0.00022944, "INCLINATION": 98.0805, "RA_OF_ASC_NODE": 39.9629, "ARG_OF_PERICENTER": 341.0917, "MEAN_ANOMALY": 19.0207, "EPHEMERIS_TYPE": 0, "CLASSIFICATION_TYPE": "U", "NORAD_CAT_ID": 43260, "ELEMENT_SET_NO": 999, "REV_AT_EPOCH": 41452, "BSTAR": 0.00027421217, "MEAN_MOTION_DOT": 1.855e-05, "MEAN_MOTION_DDOT": 0}, "tle": {"line1": "1 43260U 18031B   25342.29794607  .00001855  00000+0  27421-3 0  9995", "line2": "2 43260  98.0805  39.9629 0002294 341.0917  19.0207 14.76423522414528"}}, "geometry": {"type": "Point", "coordinates": [-83.58138044587002, 80.28695582928376]}}]}